HULIANWANG DIGUI-60     
1 65166U 25174C   26204.84702419  .00000029  00000+0  34458-4 0  9990
2 65166  86.4931 239.6215 0001924 102.5197 257.6152 13.24407469 45643
HULIANWANG DIGUI-61     
1 65167U 25174D   26204.85459362  .00000043  00000+0  66537-4 0  9997
2 65167  86.4939 239.6530 0001740 102.9267 257.2061 13.24408141 45643
HULIANWANG DIGUI-62     
1 65168U 25174E   26204.86202052  .00000044  00000+0  67543-4 0  9990
2 65168  86.4881 239.4607 0001866 105.8339 254.3000 13.24409696 45641
HULIANWANG DIGUI-63     
1 65169U 25174F   26204.86953817  .00000051  00000+0  84386-4 0  9995
2 65169  86.4933 239.6388 0001763 107.0821 253.0506 13.24403986 45647
HULIANWANG DIGUI-64     
1 65170U 25174G   26204.80168050  .00000057  00000+0  99643-4 0  9996
2 65170  86.4892 239.5314 0001917 104.3782 255.7565 13.24407892 45631
HULIANWANG DIGUI-65     
1 65171U 25174H   26204.81673872  .00000072  00000+0  13335-3 0  9991
2 65171  86.4856 239.4163 0001769 101.2621 258.8712 13.24407936 45633
HULIANWANG DIGUI-66     
1 65172U 25174J   26204.80922876  .00000068  00000+0  12529-3 0  9991
2 65172  86.4891 239.5326 0001918 102.5018 257.6330 13.24407568 45639
HULIANWANG DIGUI-67     
1 65173U 25174K   26204.82429581  .00000067  00000+0  12180-3 0  9991
2 65173  86.4903 239.5769 0001876 100.9803 259.1542 13.24409113 45609
HULIANWANG DIGUI-68     
1 65228U 25178A   26204.84682675  .00000065  00000+0  11659-3 0  9991
2 65228  86.4998   1.1480 0001954  91.2026 268.9332 13.24411485 45164
HULIANWANG DIGUI-69     
1 65229U 25178B   26204.83937462  .00000056  00000+0  95183-4 0  9993
2 65229  86.5018   1.2127 0001866  92.5103 267.6245 13.24412899 45169
HULIANWANG DIGUI-70     
1 65230U 25178C   26204.83181795  .00000033  00000+0  42962-4 0  9997
2 65230  86.4957   1.0011 0001930  89.8078 270.3277 13.24411921 45165
HULIANWANG DIGUI-71     
1 65231U 25178D   26204.82428153  .00000035  00000+0  47118-4 0  9999
2 65231  86.5015   1.1973 0001908  90.6873 269.4480 13.24411686 45161
HULIANWANG DIGUI-72     
1 65232U 25178E   26204.81673060  .00000026  00000+0  26075-4 0  9997
2 65232  86.4999   1.1350 0001925  90.8712 269.2642 13.24411179 45169
HULIANWANG DIGUI-73     
1 65305U 25187A   26204.82495149 -.00000100  00000+0  51653-4 0  9993
2 65305  50.0055  74.4812 0000064  56.8004 303.2874 13.29323952 44571
HULIANWANG DIGUI-74     
1 65306U 25187B   26204.80834957 -.00000111  00000+0  29156-4 0  9991
2 65306  50.0098  74.5054 0000049  39.6572 320.4304 13.29321957 44572
HULIANWANG DIGUI-75     
1 65307U 25187C   26204.79165208 -.00000112  00000+0  24913-4 0  9993
2 65307  50.0090  74.3984 0000064  63.8897 296.1982 13.29323112 44577
