{"fetched_at":"2026-07-24T07:06:33.741Z","source":"https://celestrak.org/NORAD/elements/gp.php?NAME=HULIANWANG&FORMAT=JSON","constellation":"guowang","records":[{"OBJECT_NAME":"HULIANWANG DIGUI-60","OBJECT_ID":"2025-174C","EPOCH":"2026-07-23T20:19:42.890016","CLASSIFICATION_TYPE":"U","MEAN_MOTION":13.24407469,"ECCENTRICITY":0.0001924,"INCLINATION":86.4931,"RA_OF_ASC_NODE":239.6215,"ARG_OF_PERICENTER":102.5197,"MEAN_ANOMALY":257.6152,"EPHEMERIS_TYPE":0,"NORAD_CAT_ID":65166,"ELEMENT_SET_NO":999,"REV_AT_EPOCH":4564,"BSTAR":0.000034458,"MEAN_MOTION_DOT":2.9e-7,"MEAN_MOTION_DDOT":0},{"OBJECT_NAME":"HULIANWANG DIGUI-61","OBJECT_ID":"2025-174D","EPOCH":"2026-07-23T20:30:36.888768","CLASSIFICATION_TYPE":"U","MEAN_MOTION":13.24408141,"ECCENTRICITY":0.000174,"INCLINATION":86.4939,"RA_OF_ASC_NODE":239.653,"ARG_OF_PERICENTER":102.9267,"MEAN_ANOMALY":257.2061,"EPHEMERIS_TYPE":0,"NORAD_CAT_ID":65167,"ELEMENT_SET_NO":999,"REV_AT_EPOCH":4564,"BSTAR":0.000066537,"MEAN_MOTION_DOT":4.3e-7,"MEAN_MOTION_DDOT":0},{"OBJECT_NAME":"HULIANWANG DIGUI-62","OBJECT_ID":"2025-174E","EPOCH":"2026-07-23T20:41:18.572928","CLASSIFICATION_TYPE":"U","MEAN_MOTION":13.24409696,"ECCENTRICITY":0.0001866,"INCLINATION":86.4881,"RA_OF_ASC_NODE":239.4607,"ARG_OF_PERICENTER":105.8339,"MEAN_ANOMALY":254.3,"EPHEMERIS_TYPE":0,"NORAD_CAT_ID":65168,"ELEMENT_SET_NO":999,"REV_AT_EPOCH":4564,"BSTAR":0.000067543,"MEAN_MOTION_DOT":4.4e-7,"MEAN_MOTION_DDOT":0},{"OBJECT_NAME":"HULIANWANG DIGUI-63","OBJECT_ID":"2025-174F","EPOCH":"2026-07-23T20:52:08.097888","CLASSIFICATION_TYPE":"U","MEAN_MOTION":13.24403986,"ECCENTRICITY":0.0001763,"INCLINATION":86.4933,"RA_OF_ASC_NODE":239.6388,"ARG_OF_PERICENTER":107.0821,"MEAN_ANOMALY":253.0506,"EPHEMERIS_TYPE":0,"NORAD_CAT_ID":65169,"ELEMENT_SET_NO":999,"REV_AT_EPOCH":4564,"BSTAR":0.000084386,"MEAN_MOTION_DOT":5.1e-7,"MEAN_MOTION_DDOT":0},{"OBJECT_NAME":"HULIANWANG DIGUI-64","OBJECT_ID":"2025-174G","EPOCH":"2026-07-23T19:14:25.195200","CLASSIFICATION_TYPE":"U","MEAN_MOTION":13.24407892,"ECCENTRICITY":0.0001917,"INCLINATION":86.4892,"RA_OF_ASC_NODE":239.5314,"ARG_OF_PERICENTER":104.3782,"MEAN_ANOMALY":255.7565,"EPHEMERIS_TYPE":0,"NORAD_CAT_ID":65170,"ELEMENT_SET_NO":999,"REV_AT_EPOCH":4563,"BSTAR":0.000099643,"MEAN_MOTION_DOT":5.7e-7,"MEAN_MOTION_DDOT":0},{"OBJECT_NAME":"HULIANWANG DIGUI-65","OBJECT_ID":"2025-174H","EPOCH":"2026-07-23T19:36:06.225408","CLASSIFICATION_TYPE":"U","MEAN_MOTION":13.24407936,"ECCENTRICITY":0.0001769,"INCLINATION":86.4856,"RA_OF_ASC_NODE":239.4163,"ARG_OF_PERICENTER":101.2621,"MEAN_ANOMALY":258.8712,"EPHEMERIS_TYPE":0,"NORAD_CAT_ID":65171,"ELEMENT_SET_NO":999,"REV_AT_EPOCH":4563,"BSTAR":0.00013335,"MEAN_MOTION_DOT":7.2e-7,"MEAN_MOTION_DDOT":0},{"OBJECT_NAME":"HULIANWANG DIGUI-66","OBJECT_ID":"2025-174J","EPOCH":"2026-07-23T19:25:17.364864","CLASSIFICATION_TYPE":"U","MEAN_MOTION":13.24407568,"ECCENTRICITY":0.0001918,"INCLINATION":86.4891,"RA_OF_ASC_NODE":239.5326,"ARG_OF_PERICENTER":102.5018,"MEAN_ANOMALY":257.633,"EPHEMERIS_TYPE":0,"NORAD_CAT_ID":65172,"ELEMENT_SET_NO":999,"REV_AT_EPOCH":4563,"BSTAR":0.00012529,"MEAN_MOTION_DOT":6.8e-7,"MEAN_MOTION_DDOT":0},{"OBJECT_NAME":"HULIANWANG DIGUI-67","OBJECT_ID":"2025-174K","EPOCH":"2026-07-23T19:46:59.157984","CLASSIFICATION_TYPE":"U","MEAN_MOTION":13.24409113,"ECCENTRICITY":0.0001876,"INCLINATION":86.4903,"RA_OF_ASC_NODE":239.5769,"ARG_OF_PERICENTER":100.9803,"MEAN_ANOMALY":259.1542,"EPHEMERIS_TYPE":0,"NORAD_CAT_ID":65173,"ELEMENT_SET_NO":999,"REV_AT_EPOCH":4560,"BSTAR":0.0001218,"MEAN_MOTION_DOT":6.7e-7,"MEAN_MOTION_DDOT":0},{"OBJECT_NAME":"HULIANWANG DIGUI-68","OBJECT_ID":"2025-178A","EPOCH":"2026-07-23T20:19:25.831200","CLASSIFICATION_TYPE":"U","MEAN_MOTION":13.24411485,"ECCENTRICITY":0.0001954,"INCLINATION":86.4998,"RA_OF_ASC_NODE":1.148,"ARG_OF_PERICENTER":91.2026,"MEAN_ANOMALY":268.9332,"EPHEMERIS_TYPE":0,"NORAD_CAT_ID":65228,"ELEMENT_SET_NO":999,"REV_AT_EPOCH":4516,"BSTAR":0.00011659,"MEAN_MOTION_DOT":6.5e-7,"MEAN_MOTION_DDOT":0},{"OBJECT_NAME":"HULIANWANG DIGUI-69","OBJECT_ID":"2025-178B","EPOCH":"2026-07-23T20:08:41.967168","CLASSIFICATION_TYPE":"U","MEAN_MOTION":13.24412899,"ECCENTRICITY":0.0001866,"INCLINATION":86.5018,"RA_OF_ASC_NODE":1.2127,"ARG_OF_PERICENTER":92.5103,"MEAN_ANOMALY":267.6245,"EPHEMERIS_TYPE":0,"NORAD_CAT_ID":65229,"ELEMENT_SET_NO":999,"REV_AT_EPOCH":4516,"BSTAR":0.000095183,"MEAN_MOTION_DOT":5.6e-7,"MEAN_MOTION_DDOT":0},{"OBJECT_NAME":"HULIANWANG DIGUI-70","OBJECT_ID":"2025-178C","EPOCH":"2026-07-23T19:57:49.070880","CLASSIFICATION_TYPE":"U","MEAN_MOTION":13.24411921,"ECCENTRICITY":0.000193,"INCLINATION":86.4957,"RA_OF_ASC_NODE":1.0011,"ARG_OF_PERICENTER":89.8078,"MEAN_ANOMALY":270.3277,"EPHEMERIS_TYPE":0,"NORAD_CAT_ID":65230,"ELEMENT_SET_NO":999,"REV_AT_EPOCH":4516,"BSTAR":0.000042962,"MEAN_MOTION_DOT":3.3e-7,"MEAN_MOTION_DDOT":0},{"OBJECT_NAME":"HULIANWANG DIGUI-71","OBJECT_ID":"2025-178D","EPOCH":"2026-07-23T19:46:57.924192","CLASSIFICATION_TYPE":"U","MEAN_MOTION":13.24411686,"ECCENTRICITY":0.0001908,"INCLINATION":86.5015,"RA_OF_ASC_NODE":1.1973,"ARG_OF_PERICENTER":90.6873,"MEAN_ANOMALY":269.448,"EPHEMERIS_TYPE":0,"NORAD_CAT_ID":65231,"ELEMENT_SET_NO":999,"REV_AT_EPOCH":4516,"BSTAR":0.000047118,"MEAN_MOTION_DOT":3.5e-7,"MEAN_MOTION_DDOT":0},{"OBJECT_NAME":"HULIANWANG DIGUI-72","OBJECT_ID":"2025-178E","EPOCH":"2026-07-23T19:36:05.523840","CLASSIFICATION_TYPE":"U","MEAN_MOTION":13.24411179,"ECCENTRICITY":0.0001925,"INCLINATION":86.4999,"RA_OF_ASC_NODE":1.135,"ARG_OF_PERICENTER":90.8712,"MEAN_ANOMALY":269.2642,"EPHEMERIS_TYPE":0,"NORAD_CAT_ID":65232,"ELEMENT_SET_NO":999,"REV_AT_EPOCH":4516,"BSTAR":0.000026075,"MEAN_MOTION_DOT":2.6e-7,"MEAN_MOTION_DDOT":0},{"OBJECT_NAME":"HULIANWANG DIGUI-73","OBJECT_ID":"2025-187A","EPOCH":"2026-07-23T19:47:55.808736","CLASSIFICATION_TYPE":"U","MEAN_MOTION":13.29323952,"ECCENTRICITY":0.0000064,"INCLINATION":50.0055,"RA_OF_ASC_NODE":74.4812,"ARG_OF_PERICENTER":56.8004,"MEAN_ANOMALY":303.2874,"EPHEMERIS_TYPE":0,"NORAD_CAT_ID":65305,"ELEMENT_SET_NO":999,"REV_AT_EPOCH":4457,"BSTAR":0.000051653,"MEAN_MOTION_DOT":-0.000001,"MEAN_MOTION_DDOT":0},{"OBJECT_NAME":"HULIANWANG DIGUI-74","OBJECT_ID":"2025-187B","EPOCH":"2026-07-23T19:24:01.402848","CLASSIFICATION_TYPE":"U","MEAN_MOTION":13.29321957,"ECCENTRICITY":0.0000049,"INCLINATION":50.0098,"RA_OF_ASC_NODE":74.5054,"ARG_OF_PERICENTER":39.6572,"MEAN_ANOMALY":320.4304,"EPHEMERIS_TYPE":0,"NORAD_CAT_ID":65306,"ELEMENT_SET_NO":999,"REV_AT_EPOCH":4457,"BSTAR":0.000029156,"MEAN_MOTION_DOT":-0.00000111,"MEAN_MOTION_DDOT":0},{"OBJECT_NAME":"HULIANWANG DIGUI-75","OBJECT_ID":"2025-187C","EPOCH":"2026-07-23T18:59:58.739712","CLASSIFICATION_TYPE":"U","MEAN_MOTION":13.29323112,"ECCENTRICITY":0.0000064,"INCLINATION":50.009,"RA_OF_ASC_NODE":74.3984,"ARG_OF_PERICENTER":63.8897,"MEAN_ANOMALY":296.1982,"EPHEMERIS_TYPE":0,"NORAD_CAT_ID":65307,"ELEMENT_SET_NO":999,"REV_AT_EPOCH":4457,"BSTAR":0.000024913,"MEAN_MOTION_DOT":-0.00000112,"MEAN_MOTION_DDOT":0}]}
